0 CZ-2C R/B
1 28480U 04046B   13282.52285670  .00000128  00000-0  64801-4 0  1724
2 28480 098.0623 093.2937 0142074 243.3693 165.3079 14.25156566462388
0 CZ-2C R/B
1 28480U 04046B   13283.87391705  .00000116  00000-0  59907-4 0  1739
2 28480 098.0623 094.5366 0142135 239.3423 257.0362 14.25157288462579
0 CZ-2C R/B
1 28480U 04046B   13286.59453622  .00000162  00000-0  77476-4 0  1752
2 28480 098.0623 097.0392 0142269 231.2311 175.4153 14.25158004462962
0 CZ-2C R/B
1 28480U 04046B   13288.15553345  .00000192  00000-0  89027-4 0  1768
2 28480 098.0625 098.4751 0142338 226.6199 264.2095 14.25159220463185
0 CZ-2C R/B
1 28480U 04046B   13289.46745581  .00000148  00000-0  72181-4 0  1773
2 28480 098.0627 099.6819 0142416 222.7083 155.1528 14.25159681463372
0 CZ-2C R/B
1 28480U 04046B   13290.74100012  .00000184  00000-0  85749-4 0  1785
2 28480 098.0628 100.8533 0142471 218.9408 209.1662 14.25160153463555
0 CZ-2C R/B
1 28480U 04046B   13292.15748980  .00000180  00000-0  84184-4 0  1793
2 28480 098.0631 102.1564 0142568 214.7242 276.5996 14.25160818463753
0 CZ-2C R/B
1 28480U 04046B   13293.47712779  .00000237  00000-0  10611-3 0  1804
2 28480 098.0632 103.3703 0142654 210.7994 207.1280 14.25161458463946
0 CZ-2C R/B
1 28480U 04046B   13294.52609910  .00000267  00000-0  11744-3 0  1815
2 28480 098.0631 104.3353 0142697 207.7000 188.9569 14.25162315464094
0 CZ-2C R/B
1 28480U 04046B   13295.58034013  .00000337  00000-0  14446-3 0  1829
2 28480 098.0630 105.3052 0142768 204.5751 197.8353 14.25163342464245
